{
  "type": "FeatureCollection",
  "features": [
    {
      "type": "Feature",
      "properties": {
        "norad_id": 34635,
        "name": "COSMOS 2251 DEB",
        "group": "cosmos-2251-debris",
        "lat": -26.88479845408216,
        "lon": -105.04527630903348,
        "alt_km": 666.0489122996687,
        "timestamp": "2025-12-14T20:40:32.167760+00:00",
        "meta_object_name": "COSMOS 2251 DEB",
        "meta_object_id": "1993-036XG",
        "meta_epoch": "2025-12-14T05:09:23.610240",
        "meta_mean_motion": 14.68297693,
        "meta_eccentricity": 0.00283732,
        "meta_inclination": 74.0459,
        "meta_ra_of_asc_node": 67.8644,
        "meta_arg_of_pericenter": 136.1475,
        "meta_mean_anomaly": 254.9089,
        "meta_ephemeris_type": 0,
        "meta_classification_type": "U",
        "meta_norad_cat_id": 34635,
        "meta_element_set_no": 999,
        "meta_rev_at_epoch": 73241,
        "meta_bstar": 0.0012747835,
        "meta_mean_motion_dot": 7.377e-05,
        "meta_mean_motion_ddot": 0,
        "tle_line1": "1 34635U 93036XG  25348.21485660  .00007377  00000+0  12748-2 0  9993",
        "tle_line2": "2 34635  74.0459  67.8644 0028373 136.1475 254.9089 14.68297693732416"
      },
      "geometry": {
        "type": "Point",
        "coordinates": [
          -105.04527630903348,
          -26.88479845408216
        ]
      }
    },
    {
      "type": "Feature",
      "properties": {
        "norad_id": 34637,
        "name": "COSMOS 2251 DEB",
        "group": "cosmos-2251-debris",
        "lat": -23.70268674307904,
        "lon": 89.89668954353691,
        "alt_km": 732.312657093632,
        "timestamp": "2025-12-14T20:40:32.167770+00:00",
        "meta_object_name": "COSMOS 2251 DEB",
        "meta_object_id": "1993-036XJ",
        "meta_epoch": "2025-12-14T07:56:11.062176",
        "meta_mean_motion": 14.60118662,
        "meta_eccentricity": 0.00496692,
        "meta_inclination": 74.0489,
        "meta_ra_of_asc_node": 98.122,
        "meta_arg_of_pericenter": 168.1949,
        "meta_mean_anomaly": 258.117,
        "meta_ephemeris_type": 0,
        "meta_classification_type": "U",
        "meta_norad_cat_id": 34637,
        "meta_element_set_no": 999,
        "meta_rev_at_epoch": 88550,
        "meta_bstar": 0.0010800737,
        "meta_mean_motion_dot": 5.261e-05,
        "meta_mean_motion_ddot": 0,
        "tle_line1": "1 34637U 93036XJ  25348.33068359  .00005261  00000+0  10801-2 0  9998",
        "tle_line2": "2 34637  74.0489  98.1220 0049669 168.1949 258.1170 14.60118662885506"
      },
      "geometry": {
        "type": "Point",
        "coordinates": [
          89.89668954353691,
          -23.70268674307904
        ]
      }
    },
    {
      "type": "Feature",
      "properties": {
        "norad_id": 34641,
        "name": "COSMOS 2251 DEB",
        "group": "cosmos-2251-debris",
        "lat": -72.84787570489685,
        "lon": -32.42319465401253,
        "alt_km": 725.48903112066,
        "timestamp": "2025-12-14T20:40:32.167780+00:00",
        "meta_object_name": "COSMOS 2251 DEB",
        "meta_object_id": "1993-036XN",
        "meta_epoch": "2025-12-14T06:22:51.973248",
        "meta_mean_motion": 14.52021483,
        "meta_eccentricity": 0.00183703,
        "meta_inclination": 73.8391,
        "meta_ra_of_asc_node": 78.7369,
        "meta_arg_of_pericenter": 353.4015,
        "meta_mean_anomaly": 38.8584,
        "meta_ephemeris_type": 0,
        "meta_classification_type": "U",
        "meta_norad_cat_id": 34641,
        "meta_element_set_no": 999,
        "meta_rev_at_epoch": 88278,
        "meta_bstar": 0.0011414342,
        "meta_mean_motion_dot": 4.597e-05,
        "meta_mean_motion_ddot": 0,
        "tle_line1": "1 34641U 93036XN  25348.26587932  .00004597  00000+0  11414-2 0  9990",
        "tle_line2": "2 34641  73.8391  78.7369 0018370 353.4015  38.8584 14.52021483882780"
      },
      "geometry": {
        "type": "Point",
        "coordinates": [
          -32.42319465401253,
          -72.84787570489685
        ]
      }
    },
    {
      "type": "Feature",
      "properties": {
        "norad_id": 34642,
        "name": "COSMOS 2251 DEB",
        "group": "cosmos-2251-debris",
        "lat": -52.003023162918126,
        "lon": -45.414494646762556,
        "alt_km": 1032.879275258264,
        "timestamp": "2025-12-14T20:40:32.167790+00:00",
        "meta_object_name": "COSMOS 2251 DEB",
        "meta_object_id": "1993-036XP",
        "meta_epoch": "2025-12-14T05:34:37.556832",
        "meta_mean_motion": 13.98979057,
        "meta_eccentricity": 0.02070291,
        "meta_inclination": 74.0049,
        "meta_ra_of_asc_node": 337.2158,
        "meta_arg_of_pericenter": 156.7409,
        "meta_mean_anomaly": 219.8941,
        "meta_ephemeris_type": 0,
        "meta_classification_type": "U",
        "meta_norad_cat_id": 34642,
        "meta_element_set_no": 999,
        "meta_rev_at_epoch": 85314,
        "meta_bstar": 0.0010585207,
        "meta_mean_motion_dot": 1.815e-05,
        "meta_mean_motion_ddot": 0,
        "tle_line1": "1 34642U 93036XP  25348.23237913  .00001815  00000+0  10585-2 0  9997",
        "tle_line2": "2 34642  74.0049 337.2158 0207029 156.7409 219.8941 13.98979057853149"
      },
      "geometry": {
        "type": "Point",
        "coordinates": [
          -45.414494646762556,
          -52.003023162918126
        ]
      }
    },
    {
      "type": "Feature",
      "properties": {
        "norad_id": 34671,
        "name": "COSMOS 2251 DEB",
        "group": "cosmos-2251-debris",
        "lat": 54.28231963078363,
        "lon": -73.27502375312069,
        "alt_km": 665.0065460579954,
        "timestamp": "2025-12-14T20:40:32.167800+00:00",
        "meta_object_name": "COSMOS 2251 DEB",
        "meta_object_id": "1993-036XR",
        "meta_epoch": "2025-12-14T02:39:02.129184",
        "meta_mean_motion": 14.66972241,
        "meta_eccentricity": 0.0011354,
        "meta_inclination": 74.0266,
        "meta_ra_of_asc_node": 131.6497,
        "meta_arg_of_pericenter": 212.501,
        "meta_mean_anomaly": 265.2378,
        "meta_ephemeris_type": 0,
        "meta_classification_type": "U",
        "meta_norad_cat_id": 34671,
        "meta_element_set_no": 999,
        "meta_rev_at_epoch": 88317,
        "meta_bstar": 0.0018782784,
        "meta_mean_motion_dot": 0.00010515,
        "meta_mean_motion_ddot": 0,
        "tle_line1": "1 34671U 93036XR  25348.11044131  .00010515  00000+0  18783-2 0  9999",
        "tle_line2": "2 34671  74.0266 131.6497 0011354 212.5010 265.2378 14.66972241883176"
      },
      "geometry": {
        "type": "Point",
        "coordinates": [
          -73.27502375312069,
          54.28231963078363
        ]
      }
    },
    {
      "type": "Feature",
      "properties": {
        "norad_id": 34672,
        "name": "COSMOS 2251 DEB",
        "group": "cosmos-2251-debris",
        "lat": 63.722478910956085,
        "lon": -22.866756548215466,
        "alt_km": 754.2905782015177,
        "timestamp": "2025-12-14T20:40:32.167810+00:00",
        "meta_object_name": "COSMOS 2251 DEB",
        "meta_object_id": "1993-036XS",
        "meta_epoch": "2025-12-11T16:16:44.249952",
        "meta_mean_motion": 14.36406242,
        "meta_eccentricity": 0.00236356,
        "meta_inclination": 74.0334,
        "meta_ra_of_asc_node": 307.539,
        "meta_arg_of_pericenter": 19.6523,
        "meta_mean_anomaly": 155.1005,
        "meta_ephemeris_type": 0,
        "meta_classification_type": "U",
        "meta_norad_cat_id": 34672,
        "meta_element_set_no": 999,
        "meta_rev_at_epoch": 65162,
        "meta_bstar": 0.00043649208,
        "meta_mean_motion_dot": 1.257e-05,
        "meta_mean_motion_ddot": 0,
        "tle_line1": "1 34672U 93036XS  25345.67828993  .00001257  00000+0  43649-3 0  9997",
        "tle_line2": "2 34672  74.0334 307.5390 0023635  19.6523 155.1005 14.36406242651626"
      },
      "geometry": {
        "type": "Point",
        "coordinates": [
          -22.866756548215466,
          63.722478910956085
        ]
      }
    },
    {
      "type": "Feature",
      "properties": {
        "norad_id": 34678,
        "name": "COSMOS 2251 DEB",
        "group": "cosmos-2251-debris",
        "lat": -22.46337860293212,
        "lon": -171.36788677110056,
        "alt_km": 812.136284029375,
        "timestamp": "2025-12-14T20:40:32.167820+00:00",
        "meta_object_name": "COSMOS 2251 DEB",
        "meta_object_id": "1993-036XY",
        "meta_epoch": "2025-12-14T08:03:06.939072",
        "meta_mean_motion": 14.30065333,
        "meta_eccentricity": 0.00244484,
        "meta_inclination": 74.0377,
        "meta_ra_of_asc_node": 2.7916,
        "meta_arg_of_pericenter": 51.4105,
        "meta_mean_anomaly": 324.9515,
        "meta_ephemeris_type": 0,
        "meta_classification_type": "U",
        "meta_norad_cat_id": 34678,
        "meta_element_set_no": 999,
        "meta_rev_at_epoch": 87402,
        "meta_bstar": 4.5231771e-05,
        "meta_mean_motion_dot": 9.1e-07,
        "meta_mean_motion_ddot": 0,
        "tle_line1": "1 34678U 93036XY  25348.33549698  .00000091  00000+0  45232-4 0  9997",
        "tle_line2": "2 34678  74.0377   2.7916 0024448  51.4105 324.9515 14.30065333874029"
      },
      "geometry": {
        "type": "Point",
        "coordinates": [
          -171.36788677110056,
          -22.46337860293212
        ]
      }
    }
  ]
}